from configparser import ConfigParser
from view_orbit import get_folder_loc
folder_loc, _ = get_folder_loc()

config = ConfigParser()

config['OBJECT A'] = {
    'sat_name' : 'OBJECT A',
    'line1' : '1 56308U 23057A   23125.81960475  .00000660  00000+0  00000+0 0  9992',
    'line2' : '2 56308   9.8856 212.7161 0023120  32.8725 327.3113 14.88280559  2007'
}
config['RISAT-2B'] = {
    'sat_name' : 'RISAT-2B',
    'line1' : '1 44233U 19028A   23134.10174731  .00006152  00000+0  50662-3 0  9998',
    'line2' : '2 44233  36.9998 199.2877 0014452 250.9853 108.9323 14.98747358218208'
}
config['ISS'] = {
    'sat_name' : 'ISS',
    'line1' : '1 25544U 98067A   19343.69339541  .00001764  00000-0  38792-4 0  9991',
    'line2' : '2 25544  51.6439 211.2001 0007417  17.6667  85.6398 15.50103472202482'
}
config['Astrosat'] = {
    'sat_name' : 'Astrosat',
    'line1' : '1 40930U 15052A   24006.16340880  .00001943  00000-0  17423-3 0  9998',
    'line2' : '2 40930   5.9997  85.2473 0008613 282.4744  77.4420 14.78268977447249'
}
config['CSS'] = {
    'sat_name' : 'CSS',
    'line1' : '1 48274U 21035A   24088.56263636  .00001440  00000+0  18361-4 0  9996',
    'line2' : '2 48274  41.4678 215.8703 0010144 270.5943  89.3735 15.64198325166476'
}
config['GOES_17'] = {
    'sat_name' : 'GOES 17',
    'line1' : '1 43226U 18022A   24107.15099155 -.00000101  00000+0  00000+0 0  9990',
    'line2' : '2 43226   0.0139  40.9179 0000963 300.5858 172.9360  1.00271696 22496'
}
config['GOES_18'] = {
    'sat_name' : 'GOES 18',
    'line1' : '1 51850U 22021A   24107.07297480  .00000086  00000+0  00000+0 0  9999',
    'line2' : '2 51850   0.0273  71.3273 0000550 250.9722 131.6624  1.00271539  7865'
}
config['METSAT_1'] = {
    'sat_name' : 'METSAT 1',
    'line1' : '1 27525U 02043A   24106.85182693 -.00000160  00000-0  00000-0 0  9993',
    'line2' : '2 27525  11.7377  38.3913 0006574 103.1413 132.4849  0.98338648 78691'
}







with open(f'{folder_loc}Satellite_TLE.txt',"w") as f:
    config.write(f)